FLOCK 4G-36             
1 62675U 25009BU  25333.16955613  .00012718  00000+0  52165-3 0  9994
2 62675  97.4205  51.3689 0003960 316.8943  43.1984 15.24375087 48372
FOSSASAT-2E19 (TAT-E)   
1 62676U 25009BV  25333.11044145  .00003872  00000+0  18514-3 0  9990
2 62676  97.4150  49.9743 0004556 334.5123  25.5886 15.19578120 48298
ELEVATION-1             
1 62677U 25009BW  25332.79042782  .00022567  00000+0  76347-3 0  9999
2 62677  97.4069  52.0336 0003807 324.1769  35.9216 15.30617268106051
FLOCK 4G-15             
1 62678U 25009BX  25333.19168289  .00012021  00000+0  49007-3 0  9993
2 62678  97.4205  51.4934 0004134 310.0470  50.0404 15.24592184106024
FLOCK 4G-30             
1 62679U 25009BY  25333.17154331  .00011183  00000+0  45924-3 0  9997
2 62679  97.4124  51.0311 0004096 336.4905  23.6145 15.24365601106011
FLOCK 4G-18             
1 62680U 25009BZ  25333.18417252  .00012767  00000+0  52275-3 0  9990
2 62680  97.4203  51.3329 0004570 326.2452  33.8494 15.24429848106018
FLOCK 4G-17             
1 62681U 25009CA  25333.17123041  .00013123  00000+0  53323-3 0  9992
2 62681  97.4118  51.1721 0004135 332.9614  27.1407 15.24681531106029
FOREST-3                
1 62682U 25009CB  25333.22138884  .00005563  00000+0  24806-3 0  9993
2 62682  97.4099  50.5343 0004686 342.6124  17.4951 15.21801224105997
