{
  "type": "FeatureCollection",
  "features": [
    {
      "type": "Feature",
      "properties": {
        "OBJECT_NAME": "FLOCK 4G-36",
        "OBJECT_ID": "2025-009BU",
        "EPOCH": "2025-11-29T04:04:09.649632",
        "MEAN_MOTION": 15.24375087,
        "ECCENTRICITY": 0.000396,
        "INCLINATION": 97.4205,
        "RA_OF_ASC_NODE": 51.3689,
        "ARG_OF_PERICENTER": 316.8943,
        "MEAN_ANOMALY": 43.1984,
        "EPHEMERIS_TYPE": 0,
        "CLASSIFICATION_TYPE": "U",
        "NORAD_CAT_ID": 62675,
        "ELEMENT_SET_NO": 999,
        "REV_AT_EPOCH": 4837,
        "BSTAR": 0.00052164764,
        "MEAN_MOTION_DOT": 0.00012718,
        "MEAN_MOTION_DDOT": 0,
        "norad_id": 62675,
        "name": "FLOCK 4G-36",
        "group": "active",
        "longitude_deg": NaN,
        "latitude_deg": NaN,
        "alt_km": NaN,
        "orbit_class": "HEO",
        "timestamp": "2025-11-30T09:33:02.568782+00:00"
      },
      "geometry": {
        "type": "Point",
        "coordinates": [
          NaN,
          NaN
        ]
      }
    },
    {
      "type": "Feature",
      "properties": {
        "OBJECT_NAME": "FOSSASAT-2E19 (TAT-E)",
        "OBJECT_ID": "2025-009BV",
        "EPOCH": "2025-11-29T02:39:02.141280",
        "MEAN_MOTION": 15.1957812,
        "ECCENTRICITY": 0.00045565,
        "INCLINATION": 97.415,
        "RA_OF_ASC_NODE": 49.9743,
        "ARG_OF_PERICENTER": 334.5123,
        "MEAN_ANOMALY": 25.5886,
        "EPHEMERIS_TYPE": 0,
        "CLASSIFICATION_TYPE": "U",
        "NORAD_CAT_ID": 62676,
        "ELEMENT_SET_NO": 999,
        "REV_AT_EPOCH": 4829,
        "BSTAR": 0.00018513778,
        "MEAN_MOTION_DOT": 3.872e-05,
        "MEAN_MOTION_DDOT": 0,
        "norad_id": 62676,
        "name": "FOSSASAT-2E19 (TAT-E)",
        "group": "active",
        "longitude_deg": NaN,
        "latitude_deg": NaN,
        "alt_km": NaN,
        "orbit_class": "HEO",
        "timestamp": "2025-11-30T09:33:02.568790+00:00"
      },
      "geometry": {
        "type": "Point",
        "coordinates": [
          NaN,
          NaN
        ]
      }
    },
    {
      "type": "Feature",
      "properties": {
        "OBJECT_NAME": "ELEVATION-1",
        "OBJECT_ID": "2025-009BW",
        "EPOCH": "2025-11-28T18:58:12.963648",
        "MEAN_MOTION": 15.30617268,
        "ECCENTRICITY": 0.00038079,
        "INCLINATION": 97.4069,
        "RA_OF_ASC_NODE": 52.0336,
        "ARG_OF_PERICENTER": 324.1769,
        "MEAN_ANOMALY": 35.9216,
        "EPHEMERIS_TYPE": 0,
        "CLASSIFICATION_TYPE": "U",
        "NORAD_CAT_ID": 62677,
        "ELEMENT_SET_NO": 999,
        "REV_AT_EPOCH": 10605,
        "BSTAR": 0.00076347481,
        "MEAN_MOTION_DOT": 0.00022567,
        "MEAN_MOTION_DDOT": 0,
        "norad_id": 62677,
        "name": "ELEVATION-1",
        "group": "active",
        "longitude_deg": NaN,
        "latitude_deg": NaN,
        "alt_km": NaN,
        "orbit_class": "HEO",
        "timestamp": "2025-11-30T09:33:02.568797+00:00"
      },
      "geometry": {
        "type": "Point",
        "coordinates": [
          NaN,
          NaN
        ]
      }
    },
    {
      "type": "Feature",
      "properties": {
        "OBJECT_NAME": "FLOCK 4G-15",
        "OBJECT_ID": "2025-009BX",
        "EPOCH": "2025-11-29T04:36:01.401696",
        "MEAN_MOTION": 15.24592184,
        "ECCENTRICITY": 0.00041344,
        "INCLINATION": 97.4205,
        "RA_OF_ASC_NODE": 51.4934,
        "ARG_OF_PERICENTER": 310.047,
        "MEAN_ANOMALY": 50.0404,
        "EPHEMERIS_TYPE": 0,
        "CLASSIFICATION_TYPE": "U",
        "NORAD_CAT_ID": 62678,
        "ELEMENT_SET_NO": 999,
        "REV_AT_EPOCH": 10602,
        "BSTAR": 0.00049006532,
        "MEAN_MOTION_DOT": 0.00012021,
        "MEAN_MOTION_DDOT": 0,
        "norad_id": 62678,
        "name": "FLOCK 4G-15",
        "group": "active",
        "longitude_deg": NaN,
        "latitude_deg": NaN,
        "alt_km": NaN,
        "orbit_class": "HEO",
        "timestamp": "2025-11-30T09:33:02.568803+00:00"
      },
      "geometry": {
        "type": "Point",
        "coordinates": [
          NaN,
          NaN
        ]
      }
    },
    {
      "type": "Feature",
      "properties": {
        "OBJECT_NAME": "FLOCK 4G-30",
        "OBJECT_ID": "2025-009BY",
        "EPOCH": "2025-11-29T04:07:01.341984",
        "MEAN_MOTION": 15.24365601,
        "ECCENTRICITY": 0.0004096,
        "INCLINATION": 97.4124,
        "RA_OF_ASC_NODE": 51.0311,
        "ARG_OF_PERICENTER": 336.4905,
        "MEAN_ANOMALY": 23.6145,
        "EPHEMERIS_TYPE": 0,
        "CLASSIFICATION_TYPE": "U",
        "NORAD_CAT_ID": 62679,
        "ELEMENT_SET_NO": 999,
        "REV_AT_EPOCH": 10601,
        "BSTAR": 0.00045923509,
        "MEAN_MOTION_DOT": 0.00011183,
        "MEAN_MOTION_DDOT": 0,
        "norad_id": 62679,
        "name": "FLOCK 4G-30",
        "group": "active",
        "longitude_deg": NaN,
        "latitude_deg": NaN,
        "alt_km": NaN,
        "orbit_class": "HEO",
        "timestamp": "2025-11-30T09:33:02.568809+00:00"
      },
      "geometry": {
        "type": "Point",
        "coordinates": [
          NaN,
          NaN
        ]
      }
    },
    {
      "type": "Feature",
      "properties": {
        "OBJECT_NAME": "FLOCK 4G-18",
        "OBJECT_ID": "2025-009BZ",
        "EPOCH": "2025-11-29T04:25:12.505728",
        "MEAN_MOTION": 15.24429848,
        "ECCENTRICITY": 0.00045709,
        "INCLINATION": 97.4203,
        "RA_OF_ASC_NODE": 51.3329,
        "ARG_OF_PERICENTER": 326.2452,
        "MEAN_ANOMALY": 33.8494,
        "EPHEMERIS_TYPE": 0,
        "CLASSIFICATION_TYPE": "U",
        "NORAD_CAT_ID": 62680,
        "ELEMENT_SET_NO": 999,
        "REV_AT_EPOCH": 10601,
        "BSTAR": 0.00052274877,
        "MEAN_MOTION_DOT": 0.00012767,
        "MEAN_MOTION_DDOT": 0,
        "norad_id": 62680,
        "name": "FLOCK 4G-18",
        "group": "active",
        "longitude_deg": NaN,
        "latitude_deg": NaN,
        "alt_km": NaN,
        "orbit_class": "HEO",
        "timestamp": "2025-11-30T09:33:02.568816+00:00"
      },
      "geometry": {
        "type": "Point",
        "coordinates": [
          NaN,
          NaN
        ]
      }
    },
    {
      "type": "Feature",
      "properties": {
        "OBJECT_NAME": "FLOCK 4G-17",
        "OBJECT_ID": "2025-009CA",
        "EPOCH": "2025-11-29T04:06:34.307424",
        "MEAN_MOTION": 15.24681531,
        "ECCENTRICITY": 0.00041351,
        "INCLINATION": 97.4118,
        "RA_OF_ASC_NODE": 51.1721,
        "ARG_OF_PERICENTER": 332.9614,
        "MEAN_ANOMALY": 27.1407,
        "EPHEMERIS_TYPE": 0,
        "CLASSIFICATION_TYPE": "U",
        "NORAD_CAT_ID": 62681,
        "ELEMENT_SET_NO": 999,
        "REV_AT_EPOCH": 10602,
        "BSTAR": 0.00053322914,
        "MEAN_MOTION_DOT": 0.00013123,
        "MEAN_MOTION_DDOT": 0,
        "norad_id": 62681,
        "name": "FLOCK 4G-17",
        "group": "active",
        "longitude_deg": NaN,
        "latitude_deg": NaN,
        "alt_km": NaN,
        "orbit_class": "HEO",
        "timestamp": "2025-11-30T09:33:02.568824+00:00"
      },
      "geometry": {
        "type": "Point",
        "coordinates": [
          NaN,
          NaN
        ]
      }
    },
    {
      "type": "Feature",
      "properties": {
        "OBJECT_NAME": "FOREST-3",
        "OBJECT_ID": "2025-009CB",
        "EPOCH": "2025-11-29T05:18:47.995776",
        "MEAN_MOTION": 15.21801224,
        "ECCENTRICITY": 0.00046868,
        "INCLINATION": 97.4099,
        "RA_OF_ASC_NODE": 50.5343,
        "ARG_OF_PERICENTER": 342.6124,
        "MEAN_ANOMALY": 17.4951,
        "EPHEMERIS_TYPE": 0,
        "CLASSIFICATION_TYPE": "U",
        "NORAD_CAT_ID": 62682,
        "ELEMENT_SET_NO": 999,
        "REV_AT_EPOCH": 10599,
        "BSTAR": 0.00024806368,
        "MEAN_MOTION_DOT": 5.563e-05,
        "MEAN_MOTION_DDOT": 0,
        "norad_id": 62682,
        "name": "FOREST-3",
        "group": "active",
        "longitude_deg": NaN,
        "latitude_deg": NaN,
        "alt_km": NaN,
        "orbit_class": "HEO",
        "timestamp": "2025-11-30T09:33:02.568830+00:00"
      },
      "geometry": {
        "type": "Point",
        "coordinates": [
          NaN,
          NaN
        ]
      }
    }
  ]
}